[{"OBJECT_NAME":"STARLINK-31059","OBJECT_ID":"2023-200H","EPOCH":"2026-03-09T21:40:06.305664","MEAN_MOTION":15.27563564,"ECCENTRICITY":0.0001092,"INCLINATION":43.0034,"RA_OF_ASC_NODE":10.9243,"ARG_OF_PERICENTER":285.1741,"MEAN_ANOMALY":74.8989,"EPHEMERIS_TYPE":0,"CLASSIFICATION_TYPE":"U","NORAD_CAT_ID":58596,"ELEMENT_SET_NO":999,"REV_AT_EPOCH":12548,"BSTAR":2.5643834e-5,"MEAN_MOTION_DOT":4.43e-6,"MEAN_MOTION_DDOT":0},{"OBJECT_NAME":"FLOCK 4G-24","OBJECT_ID":"2025-009AE","EPOCH":"2026-03-09T17:24:07.838208","MEAN_MOTION":15.27784978,"ECCENTRICITY":0.0001802,"INCLINATION":97.4061,"RA_OF_ASC_NODE":151.514,"ARG_OF_PERICENTER":280.2808,"MEAN_ANOMALY":79.8228,"EPHEMERIS_TYPE":0,"CLASSIFICATION_TYPE":"U","NORAD_CAT_ID":62637,"ELEMENT_SET_NO":999,"REV_AT_EPOCH":6373,"BSTAR":0.00038996067,"MEAN_MOTION_DOT":0.00010513,"MEAN_MOTION_DDOT":0}]
